[{"OBJECT_NAME":"STARLINK-35021","OBJECT_ID":"2025-184K","EPOCH":"2026-03-09T16:21:06.526656","MEAN_MOTION":15.05632974,"ECCENTRICITY":0.00010913,"INCLINATION":97.6031,"RA_OF_ASC_NODE":122.7142,"ARG_OF_PERICENTER":123.6007,"MEAN_ANOMALY":236.5324,"EPHEMERIS_TYPE":0,"CLASSIFICATION_TYPE":"U","NORAD_CAT_ID":65282,"ELEMENT_SET_NO":999,"REV_AT_EPOCH":3125,"BSTAR":0.00049768194,"MEAN_MOTION_DOT":7.124e-5,"MEAN_MOTION_DDOT":0},{"OBJECT_NAME":"COSMOS 886 DEB","OBJECT_ID":"1976-126S","EPOCH":"2026-03-09T21:56:14.599968","MEAN_MOTION":12.77359426,"ECCENTRICITY":0.10555572,"INCLINATION":65.8446,"RA_OF_ASC_NODE":295.88,"ARG_OF_PERICENTER":53.4024,"MEAN_ANOMALY":315.9492,"EPHEMERIS_TYPE":0,"CLASSIFICATION_TYPE":"U","NORAD_CAT_ID":9721,"ELEMENT_SET_NO":999,"REV_AT_EPOCH":28368,"BSTAR":0.00022738028,"MEAN_MOTION_DOT":5.23e-6,"MEAN_MOTION_DDOT":0}]
